*******************************************************************************
JPL/HORIZONS                     (2008 NW4)                2013-Dec-01 19:35:05
Rec #:601624 (+COV)   Soln.date: 2013-Aug-15_16:38:52     # obs: 24 (2008-2012)
 
FK5/J2000.0 helio. ecliptic osc. elements (au, days, deg., period=Julian yrs): 
 
  EPOCH=  2455339.5 ! 2010-May-23.00 (CT)          Residual RMS= .60615        
   EC= .1956240793644606   QR= 36.54581226509864   TP= 2458775.5585382441      
   OM= 285.1027150896535   W=  41.87104851841114   IN= 23.12907608396224       
   A= 45.43374724124475    MA= 348.9414855049959   ADIST= 54.32168221739085    
   PER= 306.24997          N= .003218372           ANGMOM= .113709717          
   DAN= 38.13926           DDN= 51.14548           L= 324.601183               
   B= 15.1994217           MOID= 35.56980133       TP= 2019-Oct-19.0585382441  
 
Asteroid physical parameters (km, seconds, rotational period in hours):        
   GM= n.a.                RAD= n.a.               ROTPER= n.a.                
   H= 5.2                  G= .150                 B-V= n.a.                   
                           ALBEDO= n.a.            STYP= n.a.                  
 
ASTEROID comments: 
1: soln ref.= JPL#1, OCC=5
2: source=ORB
*******************************************************************************
 

 

*******************************************************************************
Ephemeris / WWW_USER Sun Dec  1 19:35:06 2013 Pasadena, USA      / Horizons    
*******************************************************************************
Target body name: (2008 NW4)                      {source: JPL#1}
Center body name: Earth (399)                     {source: DE-0431LE-0431}
Center-site name: San Pedro Martir
*******************************************************************************
Start time      : A.D. 2013-Jan-01 00:00:00.0000 UT      
Stop  time      : A.D. 2014-Dec-31 00:00:00.0000 UT      
Step-size       : 1440 minutes
*******************************************************************************
Target pole/equ : No model available
Target radii    : (unavailable)                                                
Center geodetic : 244.536700,31.0434585,2.8281109 {E-lon(deg),Lat(deg),Alt(km)}
Center cylindric: 244.536700,5471.93108,3271.4810 {E-lon(deg),Dxy(km),Dz(km)}
Center pole/equ : High-precision EOP model        {East-longitude +}
Center radii    : 6378.1 x 6378.1 x 6356.8 km     {Equator, meridian, pole}    
Target primary  : Sun
Vis. interferer : MOON (R_eq= 1737.400) km        {source: DE-0431LE-0431}
Rel. light bend : Sun, EARTH                      {source: DE-0431LE-0431}
Rel. lght bnd GM: 1.3271E+11, 3.9860E+05 km^3/s^2                              
Small-body perts: Yes                             {source: SB431-BIG16}
Atmos refraction: NO (AIRLESS)
RA format       : DEG
Time format     : BOTH
EOP file        : eop.131128.p140219                                           
EOP coverage    : DATA-BASED 1962-JAN-20 TO 2013-NOV-28. PREDICTS-> 2014-FEB-18
Units conversion: 1 au= 149597870.700 km, c= 299792.458 km/s, 1 day= 86400.0 s 
Table cut-offs 1: Elevation (-90.0deg=NO ),Airmass (>38.000=NO), Daylight (NO )
Table cut-offs 2: Solar Elongation (  0.0,180.0=NO ),Local Hour Angle( 0.0=NO )
*******************************************************************************
Initial FK5/J2000.0 heliocentric ecliptic osculating elements (au, days, deg.):
  EPOCH=  2455339.5 ! 2010-May-23.00 (CT)          Residual RMS= .60615        
   EC= .1956240793644606   QR= 36.54581226509864   TP= 2458775.5585382441      
   OM= 285.1027150896535   W=  41.87104851841114   IN= 23.12907608396224       
Asteroid physical parameters (km, seconds, rotational period in hours):        
   GM= n.a.                RAD= n.a.               ROTPER= n.a.                
   H= 5.2                  G= .150                 B-V= n.a.                   
                           ALBEDO= n.a.            STYP= n.a.                  
************************************************************************************************************
 Date__(UT)__HR:MN Date_________JDUT     R.A._(J2000.0)_DEC. dRA*cosD d(DEC)/dt            delta      deldot
************************************************************************************************************
$$SOE
 2013-Apr-13 00:00 2456395.500000000 *m  313.98072  -5.54584 1.884963  1.556418 37.0184400843558 -26.6399066
 2013-Apr-14 00:00 2456396.500000000 *m  313.99291  -5.53554 1.824391  1.544269 37.0028322296526 -26.8206128
 2013-Apr-15 00:00 2456397.500000000 *m  314.00470  -5.52533 1.763473  1.531798 36.9871249972716 -26.9931628
 2013-Apr-16 00:00 2456398.500000000 *m  314.01606  -5.51519 1.702237  1.519013 36.9713231447249 -27.1575671
 2013-Apr-17 00:00 2456399.500000000 *m  314.02701  -5.50514 1.640707  1.505919 36.9554314199644 -27.3138455
 2013-Apr-18 00:00 2456400.500000000 *m  314.03755  -5.49518 1.578908  1.492525 36.9394545563787 -27.4620262
 2013-Apr-19 00:00 2456401.500000000 *m  314.04766  -5.48530 1.516865  1.478835 36.9233972675689 -27.6021473
 2013-Apr-20 00:00 2456402.500000000 *m  314.05736  -5.47552 1.454600  1.464858 36.9072642406249 -27.7342607
 2013-Apr-21 00:00 2456403.500000000 *m  314.06663  -5.46583 1.392134  1.450599 36.8910601269984 -27.8584361
 2013-Apr-22 00:00 2456404.500000000 *m  314.07548  -5.45624 1.329490  1.436066 36.8747895307686 -27.9747655
 2013-Apr-23 00:00 2456405.500000000 *m  314.08390  -5.44674 1.266683  1.421264 36.8584569952495 -28.0833644
 2013-Apr-24 00:00 2456406.500000000 *   314.09190  -5.43735 1.203726  1.406199 36.8420669905312 -28.1843665
 2013-Apr-25 00:00 2456407.500000000 *   314.09947  -5.42805 1.140622  1.390872 36.8256239063429 -28.2779104
 2013-Apr-26 00:00 2456408.500000000 *   314.10662  -5.41885 1.077371  1.375285 36.8091320556377 -28.3641161
 2013-Apr-27 00:00 2456409.500000000 *   314.11334  -5.40976 1.013963  1.359435 36.7925956931706 -28.4430575
 2013-Apr-28 00:00 2456410.500000000 *   314.11963  -5.40078 0.950384  1.343318 36.7760190493329 -28.5147390
 2013-Apr-29 00:00 2456411.500000000 *   314.12548  -5.39190 0.886622  1.326928 36.7594063738064 -28.5790864
 2013-Apr-30 00:00 2456412.500000000 *   314.13091  -5.38313 0.822671  1.310260 36.7427619793298 -28.6359553
 2013-May-01 00:00 2456413.500000000 *   314.13591  -5.37447 0.758529  1.293311 36.7260902758509 -28.6851548
 2013-May-02 00:00 2456414.500000000 *   314.14047  -5.36593 0.694207  1.276080 36.7093957894844 -28.7264750
 2013-May-03 00:00 2456415.500000000 *   314.14459  -5.35750 0.629721  1.258568 36.6926831661664 -28.7597109
 2013-May-04 00:00 2456416.500000000 *   314.14828  -5.34918 0.565094  1.240778 36.6759571636750 -28.7846788
 2013-May-05 00:00 2456417.500000000 *   314.15154  -5.34099 0.500354  1.222716 36.6592226367269 -28.8012244
 2013-May-06 00:00 2456418.500000000 *   314.15436  -5.33291 0.435532  1.204389 36.6424845189656 -28.8092254
 2013-May-07 00:00 2456419.500000000 *   314.15674  -5.32496 0.370661  1.185804 36.6257478041355 -28.8085925
 2013-May-08 00:00 2456420.500000000 *m  314.15868  -5.31713 0.305774  1.166971 36.6090175275310 -28.7992674
 2013-May-09 00:00 2456421.500000000 *m  314.16018  -5.30943 0.240905  1.147899 36.5922987481865 -28.7812223
 2013-May-10 00:00 2456422.500000000 *m  314.16125  -5.30186 0.176089  1.128597 36.5755965321404 -28.7544569
 2013-May-11 00:00 2456423.500000000 *m  314.16189  -5.29441 0.111357  1.109074 36.5589159371827 -28.7189958
 2013-May-12 00:00 2456424.500000000 *m  314.16208  -5.28709 0.046741  1.089342 36.5422619995402 -28.6748848
 2013-May-13 00:00 2456425.500000000 *m  314.16184  -5.27991 -0.01773  1.069409 36.5256397228260 -28.6221868
 2013-May-14 00:00 2456426.500000000 *m  314.16117  -5.27285 -0.08202  1.049284 36.5090540692782 -28.5609778
 2013-May-15 00:00 2456427.500000000 *m  314.16007  -5.26593 -0.14612  1.028976 36.4925099529241 -28.4913446
 2013-May-16 00:00 2456428.500000000 *m  314.15854  -5.25915 -0.20999  1.008494 36.4760122339409 -28.4133832
 2013-May-17 00:00 2456429.500000000 *m  314.15657  -5.25250 -0.27361  0.987847 36.4595657132501 -28.3271991
 2013-May-18 00:00 2456430.500000000 *m  314.15418  -5.24599 -0.33695  0.967044 36.4431751263217 -28.2329101
 2013-May-19 00:00 2456431.500000000 *m  314.15137  -5.23962 -0.40001  0.946092 36.4268451353487 -28.1306489
 2013-May-20 00:00 2456432.500000000 *m  314.14813  -5.23338 -0.46274  0.925000 36.4105803194528 -28.0205669
 2013-May-21 00:00 2456433.500000000 *m  314.14448  -5.22729 -0.52515  0.903774 36.3943851635368 -27.9028349
 2013-May-22 00:00 2456434.500000000 *m  314.14040  -5.22134 -0.58722  0.882422 36.3782640479041 -27.7776391
 2013-May-23 00:00 2456435.500000000 *   314.13591  -5.21553 -0.64894  0.860948 36.3622212426539 -27.6451680
 2013-May-24 00:00 2456436.500000000 *   314.13100  -5.20986 -0.71033  0.839352 36.3462609123946 -27.5055897
 2013-May-25 00:00 2456437.500000000 *   314.12569  -5.20433 -0.77138  0.817634 36.3303871364836 -27.3590222
 2013-May-26 00:00 2456438.500000000 *   314.11996  -5.19895 -0.83212  0.795790 36.3146039463266 -27.2055059
 2013-May-27 00:00 2456439.500000000 *   314.11383  -5.19372 -0.89255  0.773815 36.2989153745321 -27.0449919
 2013-May-28 00:00 2456440.500000000 *   314.10730  -5.18863 -0.95269  0.751707 36.2833255042995 -26.8773538
 2013-May-29 00:00 2456441.500000000 *   314.10036  -5.18369 -1.01254  0.729462 36.2678385059865 -26.7024183
 2013-May-30 00:00 2456442.500000000 *   314.09302  -5.17889 -1.07207  0.707084 36.2524586529258 -26.5200040
 2013-May-31 00:00 2456443.500000000 *   314.08529  -5.17425 -1.13126  0.684576 36.2371903167878 -26.3299518
 2013-Jun-01 00:00 2456444.500000000 *   314.07716  -5.16975 -1.19009  0.661946 36.2220379488857 -26.1321426
 2013-Jun-02 00:00 2456445.500000000 *   314.06863  -5.16541 -1.24851  0.639203 36.2070060553550 -25.9265014
